CCSDS_OMM_VERS = 2.0
CREATION_DATE  = 
ORIGINATOR     = 

OBJECT_NAME    = ERS-1
OBJECT_ID      = 1991-050A
CENTER_NAME    = EARTH
REF_FRAME      = TEME
TIME_SYSTEM    = UTC
MEAN_ELEMENT_THEORY = SGP/SGP4

EPOCH          = 2026-03-22T06:41:27.488832
MEAN_MOTION    = 14.39458373
ECCENTRICITY   = .00323385
INCLINATION    = 98.7872
RA_OF_ASC_NODE = 99.8294
ARG_OF_PERICENTER = 163.1087
MEAN_ANOMALY   = 197.1184

EPHEMERIS_TYPE = 0
CLASSIFICATION_TYPE = U
NORAD_CAT_ID   = 21574
ELEMENT_SET_NO = 999
REV_AT_EPOCH   = 81754
BSTAR          = .10642794E-3
MEAN_MOTION_DOT = .287E-5
MEAN_MOTION_DDOT = 0

CCSDS_OMM_VERS = 2.0
CREATION_DATE  = 
ORIGINATOR     = 

OBJECT_NAME    = ARIANE 40 R/B
OBJECT_ID      = 1991-050F
CENTER_NAME    = EARTH
REF_FRAME      = TEME
TIME_SYSTEM    = UTC
MEAN_ELEMENT_THEORY = SGP/SGP4

EPOCH          = 2026-03-22T03:51:59.086656
MEAN_MOTION    = 14.42902080
ECCENTRICITY   = .00039253
INCLINATION    = 98.1986
RA_OF_ASC_NODE = 132.9280
ARG_OF_PERICENTER = 53.7981
MEAN_ANOMALY   = 306.3572

EPHEMERIS_TYPE = 0
CLASSIFICATION_TYPE = U
NORAD_CAT_ID   = 21610
ELEMENT_SET_NO = 999
REV_AT_EPOCH   = 82079
BSTAR          = .92712531E-4
MEAN_MOTION_DOT = .268E-5
MEAN_MOTION_DDOT = 0

CCSDS_OMM_VERS = 2.0
CREATION_DATE  = 
ORIGINATOR     = 

OBJECT_NAME    = INTERCOSMOS 25
OBJECT_ID      = 1991-086A
CENTER_NAME    = EARTH
REF_FRAME      = TEME
TIME_SYSTEM    = UTC
MEAN_ELEMENT_THEORY = SGP/SGP4

EPOCH          = 2026-03-22T00:57:46.001664
MEAN_MOTION    = 12.12042016
ECCENTRICITY   = .14867619
INCLINATION    = 82.6029
RA_OF_ASC_NODE = 302.5429
ARG_OF_PERICENTER = 90.3227
MEAN_ANOMALY   = 286.7692

EPHEMERIS_TYPE = 0
CLASSIFICATION_TYPE = U
NORAD_CAT_ID   = 21819
ELEMENT_SET_NO = 999
REV_AT_EPOCH   = 49818
BSTAR          = .31083977E-3
MEAN_MOTION_DOT = .1623E-4
MEAN_MOTION_DDOT = 0

CCSDS_OMM_VERS = 2.0
CREATION_DATE  = 
ORIGINATOR     = 

OBJECT_NAME    = SL-8 R/B
OBJECT_ID      = 1992-008B
CENTER_NAME    = EARTH
REF_FRAME      = TEME
TIME_SYSTEM    = UTC
MEAN_ELEMENT_THEORY = SGP/SGP4

EPOCH          = 2026-03-22T06:02:23.148384
MEAN_MOTION    = 13.75969553
ECCENTRICITY   = .00359163
INCLINATION    = 82.9224
RA_OF_ASC_NODE = 258.4308
ARG_OF_PERICENTER = 99.3793
MEAN_ANOMALY   = 73.2440

EPHEMERIS_TYPE = 0
CLASSIFICATION_TYPE = U
NORAD_CAT_ID   = 21876
ELEMENT_SET_NO = 999
REV_AT_EPOCH   = 71114
BSTAR          = -.15612663E-4
MEAN_MOTION_DOT = 0
MEAN_MOTION_DDOT = 0

CCSDS_OMM_VERS = 2.0
CREATION_DATE  = 
ORIGINATOR     = 

OBJECT_NAME    = SL-8 R/B
OBJECT_ID      = 1992-020B
CENTER_NAME    = EARTH
REF_FRAME      = TEME
TIME_SYSTEM    = UTC
MEAN_ELEMENT_THEORY = SGP/SGP4

EPOCH          = 2026-03-22T06:39:14.959872
MEAN_MOTION    = 13.75550305
ECCENTRICITY   = .00275874
INCLINATION    = 82.9317
RA_OF_ASC_NODE = 144.4164
ARG_OF_PERICENTER = 261.9676
MEAN_ANOMALY   = 164.8532

EPHEMERIS_TYPE = 0
CLASSIFICATION_TYPE = U
NORAD_CAT_ID   = 21938
ELEMENT_SET_NO = 999
REV_AT_EPOCH   = 70286
BSTAR          = .28664663E-4
MEAN_MOTION_DOT = .43E-6
MEAN_MOTION_DDOT = 0

CCSDS_OMM_VERS = 2.0
CREATION_DATE  = 
ORIGINATOR     = 

OBJECT_NAME    = USA 81
OBJECT_ID      = 1992-023A
CENTER_NAME    = EARTH
REF_FRAME      = TEME
TIME_SYSTEM    = UTC
MEAN_ELEMENT_THEORY = SGP/SGP4

EPOCH          = 2026-03-22T02:14:35.144448
MEAN_MOTION    = 14.32371761
ECCENTRICITY   = .0002073
INCLINATION    = 85.0061
RA_OF_ASC_NODE = 124.2840
ARG_OF_PERICENTER = 69.5102
MEAN_ANOMALY   = 290.6313

EPHEMERIS_TYPE = 0
CLASSIFICATION_TYPE = U
NORAD_CAT_ID   = 21949
ELEMENT_SET_NO = 999
REV_AT_EPOCH   = 9656
BSTAR          = .49559707E-4
MEAN_MOTION_DOT = .154E-5
MEAN_MOTION_DDOT = 0

CCSDS_OMM_VERS = 2.0
CREATION_DATE  = 
ORIGINATOR     = 

OBJECT_NAME    = COSMOS 2219
OBJECT_ID      = 1992-076A
CENTER_NAME    = EARTH
REF_FRAME      = TEME
TIME_SYSTEM    = UTC
MEAN_ELEMENT_THEORY = SGP/SGP4

EPOCH          = 2026-03-22T04:23:39.962688
MEAN_MOTION    = 14.14092904
ECCENTRICITY   = .00182513
INCLINATION    = 71.0638
RA_OF_ASC_NODE = 351.9539
ARG_OF_PERICENTER = 189.2275
MEAN_ANOMALY   = 170.8515

EPHEMERIS_TYPE = 0
CLASSIFICATION_TYPE = U
NORAD_CAT_ID   = 22219
ELEMENT_SET_NO = 999
REV_AT_EPOCH   = 72014
BSTAR          = -.51346415E-4
MEAN_MOTION_DOT = -.145E-5
MEAN_MOTION_DDOT = 0

CCSDS_OMM_VERS = 2.0
CREATION_DATE  = 
ORIGINATOR     = 

OBJECT_NAME    = SL-16 R/B
OBJECT_ID      = 1992-076B
CENTER_NAME    = EARTH
REF_FRAME      = TEME
TIME_SYSTEM    = UTC
MEAN_ELEMENT_THEORY = SGP/SGP4

EPOCH          = 2026-03-22T06:19:00.382368
MEAN_MOTION    = 14.16862273
ECCENTRICITY   = .00106338
INCLINATION    = 71.0007
RA_OF_ASC_NODE = 161.8902
ARG_OF_PERICENTER = 73.0029
MEAN_ANOMALY   = 347.4931

EPHEMERIS_TYPE = 0
CLASSIFICATION_TYPE = U
NORAD_CAT_ID   = 22220
ELEMENT_SET_NO = 999
REV_AT_EPOCH   = 72361
BSTAR          = .15167125E-3
MEAN_MOTION_DOT = .256E-5
MEAN_MOTION_DDOT = 0

CCSDS_OMM_VERS = 2.0
CREATION_DATE  = 
ORIGINATOR     = 

OBJECT_NAME    = COSMOS 2221
OBJECT_ID      = 1992-080A
CENTER_NAME    = EARTH
REF_FRAME      = TEME
TIME_SYSTEM    = UTC
MEAN_ELEMENT_THEORY = SGP/SGP4

EPOCH          = 2026-03-22T00:13:45.964128
MEAN_MOTION    = 14.96248277
ECCENTRICITY   = .00150679
INCLINATION    = 82.5001
RA_OF_ASC_NODE = 267.2765
ARG_OF_PERICENTER = 146.6187
MEAN_ANOMALY   = 213.5988

EPHEMERIS_TYPE = 0
CLASSIFICATION_TYPE = U
NORAD_CAT_ID   = 22236
ELEMENT_SET_NO = 999
REV_AT_EPOCH   = 78263
BSTAR          = .17298572E-3
MEAN_MOTION_DOT = .1982E-4
MEAN_MOTION_DDOT = 0

CCSDS_OMM_VERS = 2.0
CREATION_DATE  = 
ORIGINATOR     = 

OBJECT_NAME    = SL-16 R/B
OBJECT_ID      = 1992-093B
CENTER_NAME    = EARTH
REF_FRAME      = TEME
TIME_SYSTEM    = UTC
MEAN_ELEMENT_THEORY = SGP/SGP4

EPOCH          = 2026-03-22T02:33:45.952704
MEAN_MOTION    = 14.15450065
ECCENTRICITY   = .00063105
INCLINATION    = 71.0237
RA_OF_ASC_NODE = 338.2014
ARG_OF_PERICENTER = 281.2596
MEAN_ANOMALY   = 78.7817

EPHEMERIS_TYPE = 0
CLASSIFICATION_TYPE = U
NORAD_CAT_ID   = 22285
ELEMENT_SET_NO = 999
REV_AT_EPOCH   = 71491
BSTAR          = .19542156E-3
MEAN_MOTION_DOT = .334E-5
MEAN_MOTION_DDOT = 0

CCSDS_OMM_VERS = 2.0
CREATION_DATE  = 
ORIGINATOR     = 

OBJECT_NAME    = COSMOS 2228
OBJECT_ID      = 1992-094A
CENTER_NAME    = EARTH
REF_FRAME      = TEME
TIME_SYSTEM    = UTC
MEAN_ELEMENT_THEORY = SGP/SGP4

EPOCH          = 2026-03-22T05:14:12.410880
MEAN_MOTION    = 14.97251268
ECCENTRICITY   = .00165993
INCLINATION    = 82.5179
RA_OF_ASC_NODE = 225.3136
ARG_OF_PERICENTER = 258.8826
MEAN_ANOMALY   = 101.0530

EPHEMERIS_TYPE = 0
CLASSIFICATION_TYPE = U
NORAD_CAT_ID   = 22286
ELEMENT_SET_NO = 999
REV_AT_EPOCH   = 77793
BSTAR          = .24416624E-3
MEAN_MOTION_DOT = .286E-4
MEAN_MOTION_DDOT = 0

CCSDS_OMM_VERS = 2.0
CREATION_DATE  = 
ORIGINATOR     = 

OBJECT_NAME    = SL-16 R/B
OBJECT_ID      = 1993-016B
CENTER_NAME    = EARTH
REF_FRAME      = TEME
TIME_SYSTEM    = UTC
MEAN_ELEMENT_THEORY = SGP/SGP4

EPOCH          = 2026-03-22T06:57:15.870528
MEAN_MOTION    = 14.15306620
ECCENTRICITY   = .00123548
INCLINATION    = 71.0080
RA_OF_ASC_NODE = 188.7189
ARG_OF_PERICENTER = 297.7085
MEAN_ANOMALY   = 62.2784

EPHEMERIS_TYPE = 0
CLASSIFICATION_TYPE = U
NORAD_CAT_ID   = 22566
ELEMENT_SET_NO = 999
REV_AT_EPOCH   = 70395
BSTAR          = -.94604779E-4
MEAN_MOTION_DOT = -.232E-5
MEAN_MOTION_DDOT = 0

